NORAD_CAT_ID,OBJECT_NAME,OBJECT_TYPE,EPOCH,MEAN_MOTION,ECCENTRICITY,INCLINATION,RA_OF_ASC_NODE,ARG_OF_PERICENTER,MEAN_ANOMALY,BSTAR,MEAN_MOTION_DOT,MEAN_MOTION_DDOT,TLE_LINE0,TLE_LINE1,TLE_LINE2,SEMIMAJOR_AXIS,PERIOD,APOGEE,PERIGEE,DECAYED
55788.0,STARLINK-5804,PAYLOAD,2023-05-04 01:06:08,15.69935292,0.0003025,70.0009,342.8755,254.9316,105.1545,3.0975e-05,3.515e-05,0.0,0 STARLINK-5804,1 55788U 23028AZ  23124.04593385  .00003515  00000-0  30975-4 0  9999,2 55788  70.0009 342.8755 0003025 254.9316 105.1545 15.69935292 10288,6737.219,91.724,361.122,357.046,0.0
55788.0,STARLINK-5804,PAYLOAD,2023-05-04 17:55:25,15.69926224,0.0002479,69.9992,340.9033,253.7355,106.3568,2.4639e-06,8.4e-07,0.0,0 STARLINK-5804,1 55788U 23028AZ  23124.74682584  .00000084  00000-0  24639-5 0  9995,2 55788  69.9992 340.9033 0002479 253.7355 106.3568 15.69926224 10391,6737.245,91.724,360.78,357.44,0.0
55788.0,STARLINK-5804,PAYLOAD,2023-05-04 20:58:55,15.69923097,0.0002976,69.9981,340.5445,256.8429,103.2435,2.7102e-05,3.047e-05,0.0,0 STARLINK-5804,1 55788U 23028AZ  23124.87425705  .00003047  00000-0  27102-4 0  9998,2 55788  69.9981 340.5445 0002976 256.8429 103.2435 15.69923097 10428,6737.254,91.724,361.124,357.114,0.0
55788.0,STARLINK-5804,PAYLOAD,2023-05-05 16:51:42,15.69924601,0.0003468,69.998,338.2166,266.9673,93.1126,8.7519e-06,8.4e-06,0.0,0 STARLINK-5804,1 55788U 23028AZ  23125.70257734  .00000840  00000-0  87519-5 0  9993,2 55788  69.9980 338.2166 0003468 266.9673  93.1126 15.69924601 10540,6737.25,91.724,361.451,356.778,0.0
55788.0,STARLINK-5804,PAYLOAD,2023-05-06 00:30:27,15.69936674,0.0003709,69.9996,337.3229,271.1876,88.8895,1.9135e-05,2.09e-05,0.0,0 STARLINK-5804,1 55788U 23028AZ  23126.02115193  .00002090  00000-0  19135-4 0  9998,2 55788  69.9996 337.3229 0003709 271.1876  88.8895 15.69936674 10590,6737.215,91.723,361.579,356.581,0.0
55788.0,STARLINK-5804,PAYLOAD,2023-05-06 15:47:59,15.6992717,0.0003909,69.9986,335.5295,268.509,91.5658,1.2493e-05,1.29e-05,0.0,0 STARLINK-5804,1 55788U 23028AZ  23126.65832306  .00001290  00000-0  12493-4 0  9990,2 55788  69.9986 335.5295 0003909 268.5090  91.5658 15.69927170 10704,6737.242,91.724,361.741,356.474,0.0
55788.0,STARLINK-5804,PAYLOAD,2023-05-06 21:54:59,15.69936761,0.0003543,69.9991,334.813,264.4139,95.6653,3.6027e-05,4.124e-05,0.0,0 STARLINK-5804,1 55788U 23028AZ  23126.91318445  .00004124  00000-0  36027-4 0  9990,2 55788  69.9991 334.8130 0003543 264.4139  95.6653 15.69936761 10732,6737.215,91.723,361.467,356.693,0.0
55788.0,STARLINK-5804,PAYLOAD,2023-05-06 23:26:45,15.69910784,0.0003193,69.9988,334.6334,267.4528,92.6303,-2.2667e-05,-2.936e-05,0.0,0 STARLINK-5804,1 55788U 23028AZ  23126.97691407 -.00002936  00000-0 -22667-4 0  9994,2 55788  69.9988 334.6334 0003193 267.4528  92.6303 15.69910784 10745,6737.289,91.725,361.305,357.003,0.0
55788.0,STARLINK-5804,PAYLOAD,2023-05-07 16:16:01,15.6991598,0.0003588,69.9987,332.6592,269.6777,90.4008,-1.3533e-05,-1.839e-05,0.0,0 STARLINK-5804,1 55788U 23028AZ  23127.67779818 -.00001839  00000-0 -13533-4 0  9998,2 55788  69.9987 332.6592 0003588 269.6777  90.4008 15.69915980 10859,6737.274,91.725,361.557,356.722,0.0
55788.0,STARLINK-5804,PAYLOAD,2023-05-07 23:54:46,15.6993678,0.0004108,69.9976,331.7661,271.2904,88.7821,2.2322e-05,2.473e-05,0.0,0 STARLINK-5804,1 55788U 23028AZ  23127.99637128  .00002473  00000-0  22322-4 0  9999,2 55788  69.9976 331.7661 0004108 271.2904  88.7821 15.69936780 10904,6737.215,91.723,361.848,356.312,0.0
55788.0,STARLINK-5804,PAYLOAD,2023-05-08 19:47:33,15.6993147,0.0003933,69.9991,329.4371,266.9445,93.1301,5.9818e-06,5.06e-06,0.0,0 STARLINK-5804,1 55788U 23028AZ  23128.82469056  .00000506  00000-0  59818-5 0  9991,2 55788  69.9991 329.4371 0003933 266.9445  93.1301 15.69931470 11038,6737.23,91.724,361.745,356.445,0.0
55788.0,STARLINK-5804,PAYLOAD,2023-05-08 21:19:18,15.69932837,0.0003762,69.9991,329.2579,266.8857,93.1909,9.4927e-06,9.29e-06,0.0,0 STARLINK-5804,1 55788U 23028AZ  23128.88840678  .00000929  00000-0  94927-5 0  9999,2 55788  69.9991 329.2579 0003762 266.8857  93.1909 15.69932837 11056,6737.226,91.724,361.626,356.557,0.0
55788.0,STARLINK-5804,PAYLOAD,2023-05-09 14:08:35,15.69926408,0.000369,69.9973,327.2875,264.3515,95.726,3.2683e-06,1.8e-06,0.0,0 STARLINK-5804,1 55788U 23028AZ  23129.58929792  .00000180  00000-0  32683-5 0  9992,2 55788  69.9973 327.2875 0003690 264.3515  95.7260 15.69926408 11164,6737.245,91.724,361.596,356.624,0.0
55788.0,STARLINK-5804,PAYLOAD,2023-05-09 23:19:06,15.69911279,0.000321,69.9972,326.2109,265.5177,94.5652,-1.4052e-05,-1.901e-05,0.0,0 STARLINK-5804,1 55788U 23028AZ  23129.97160723 -.00001901  00000-0 -14052-4 0  9999,2 55788  69.9972 326.2109 0003210 265.5177  94.5652 15.69911279 11226,6737.288,91.725,361.315,356.99,0.0
55788.0,STARLINK-5804,PAYLOAD,2023-05-10 19:11:51,15.69937111,0.0003646,69.9972,323.8831,269.0747,91.0031,1.7029e-05,1.836e-05,0.0,0 STARLINK-5804,1 55788U 23028AZ  23130.79990468  .00001836  00000-0  17029-4 0  9990,2 55788  69.9972 323.8831 0003646 269.0747  91.0031 15.69937111 11345,6737.214,91.723,361.535,356.623,0.0
55788.0,STARLINK-5804,PAYLOAD,2023-05-10 22:15:22,15.69936039,0.000361,69.9972,323.5243,268.4466,91.6316,1.4308e-05,1.509e-05,0.0,0 STARLINK-5804,1 55788U 23028AZ  23130.92733850  .00001509  00000-0  14308-4 0  9999,2 55788  69.9972 323.5243 0003610 268.4466  91.6316 15.69936039 11374,6737.217,91.723,361.514,356.65,0.0
55788.0,STARLINK-5804,PAYLOAD,2023-05-11 13:32:55,15.69907112,0.0002846,69.998,321.7325,272.1599,87.9271,-1.1694e-05,-1.617e-05,0.0,0 STARLINK-5804,1 55788U 23028AZ  23131.56453440 -.00001617  00000-0 -11694-4 0  9991,2 55788  69.9980 321.7325 0002846 272.1599  87.9271 15.69907112 11461,6737.3,91.725,361.082,357.247,0.0
55788.0,STARLINK-5804,PAYLOAD,2023-05-11 15:04:40,15.69909454,0.0002691,69.9988,321.5542,270.6743,89.4144,-9.9308e-06,-1.405e-05,0.0,0 STARLINK-5804,1 55788U 23028AZ  23131.62825020 -.00001405  00000-0 -99308-5 0  9999,2 55788  69.9988 321.5542 0002691 270.6743  89.4144 15.69909454 11489,6737.293,91.725,360.971,357.345,0.0
55788.0,STARLINK-5804,PAYLOAD,2023-05-11 21:11:40,15.69928904,0.0003027,69.9971,320.8385,249.6855,110.4016,-7.8262e-06,-1.154e-05,0.0,0 STARLINK-5804,1 55788U 23028AZ  23131.88310364 -.00001154  00000-0 -78262-5 0  9994,2 55788  69.9971 320.8385 0003027 249.6855 110.4016 15.69928904 11510,6737.237,91.724,361.142,357.063,0.0
55788.0,STARLINK-5804,PAYLOAD,2023-05-11 22:43:24,15.69942479,0.0003714,69.9972,320.662,264.2769,95.8003,1.8073e-06,4e-08,0.0,0 STARLINK-5804,1 55788U 23028AZ  23131.94680937  .00000004  00000-0  18073-5 0  9992,2 55788  69.9972 320.6620 0003714 264.2769  95.8003 15.69942479 11538,6737.199,91.723,361.566,356.561,0.0
55788.0,STARLINK-5804,PAYLOAD,2023-05-12 15:32:40,15.69939693,0.0003562,69.9976,318.6885,265.8099,94.269,1.0842e-05,1.092e-05,0.0,0 STARLINK-5804,1 55788U 23028AZ  23132.64769193  .00001092  00000-0  10842-4 0  9995,2 55788  69.9976 318.6885 0003562 265.8099  94.2690 15.69939693 11636,6737.207,91.723,361.471,356.672,0.0
55788.0,STARLINK-5804,PAYLOAD,2023-05-13 05:18:27,15.6992558,0.0003725,69.9973,317.0753,269.7888,90.2881,-1.1841e-05,-1.637e-05,0.0,0 STARLINK-5804,1 55788U 23028AZ  23133.22115181 -.00001637  00000-0 -11841-4 0  9999,2 55788  69.9973 317.0753 0003725 269.7888  90.2881 15.69925580 11728,6737.247,91.724,361.622,356.602,0.0
55788.0,STARLINK-5804,PAYLOAD,2023-05-13 12:57:14,15.69915953,0.0003271,69.9977,316.1835,257.4766,102.6064,-4.9862e-06,-8.12e-06,0.0,0 STARLINK-5804,1 55788U 23028AZ  23133.53974632 -.00000812  00000-0 -49862-5 0  9996,2 55788  69.9977 316.1835 0003271 257.4766 102.6064 15.69915953 11788,6737.274,91.725,361.343,356.936,0.0
55788.0,STARLINK-5804,PAYLOAD,2023-05-13 16:00:44,15.69916881,0.000305,69.9983,315.8245,254.6492,105.4367,-2.8635e-06,-5.57e-06,0.0,0 STARLINK-5804,1 55788U 23028AZ  23133.66718085 -.00000557  00000-0 -28635-5 0  9999,2 55788  69.9983 315.8245 0003050 254.6492 105.4367 15.69916881 11795,6737.272,91.725,361.192,357.082,0.0
55788.0,STARLINK-5804,PAYLOAD,2023-05-13 20:35:59,15.69918738,0.0003091,69.9985,315.2857,266.6236,93.4606,1.0206e-05,1.014e-05,0.0,0 STARLINK-5804,1 55788U 23028AZ  23133.85832727  .00001014  00000-0  10206-4 0  9991,2 55788  69.9985 315.2857 0003091 266.6236  93.4606 15.69918738 11834,6737.266,91.724,361.214,357.049,0.0
55788.0,STARLINK-5804,PAYLOAD,2023-05-13 22:07:44,15.69922721,0.0003178,69.9989,315.1077,266.223,93.8602,1.4182e-05,1.493e-05,0.0,0 STARLINK-5804,1 55788U 23028AZ  23133.92204116  .00001493  00000-0  14182-4 0  9992,2 55788  69.9989 315.1077 0003178 266.2230  93.8602 15.69922721 11834,6737.255,91.724,361.261,356.979,0.0
55788.0,STARLINK-5804,PAYLOAD,2023-05-14 05:46:29,15.69936874,0.0003135,69.9994,314.21,269.1984,90.8853,5.472e-06,4.46e-06,0.0,0 STARLINK-5804,1 55788U 23028AZ  23134.24061535  .00000446  00000-0  54720-5 0  9994,2 55788  69.9994 314.2100 0003135 269.1984  90.8853 15.69936874 11882,6737.215,91.723,361.192,356.967,0.0
55788.0,STARLINK-5804,PAYLOAD,2023-05-14 13:25:14,15.69938073,0.0003309,69.9988,313.3145,263.0565,97.0255,4.4348e-06,3.21e-06,0.0,0 STARLINK-5804,1 55788U 23028AZ  23134.55919537  .00000321  00000-0  44348-5 0  9999,2 55788  69.9988 313.3145 0003309 263.0565  97.0255 15.69938073 11940,6737.211,91.723,361.306,356.847,0.0
55788.0,STARLINK-5804,PAYLOAD,2023-05-14 21:04:00,15.69917539,0.0003671,69.9978,312.4173,264.9094,95.1683,2.1303e-05,2.349e-05,0.0,0 STARLINK-5804,1 55788U 23028AZ  23134.87778732  .00002349  00000-0  21303-4 0  9991,2 55788  69.9978 312.4173 0003671 264.9094  95.1683 15.69917539 11992,6737.27,91.725,361.608,356.662,0.0
55788.0,STARLINK-5804,PAYLOAD,2023-05-15 12:21:32,15.69920471,0.0003338,69.9986,310.627,261.0502,99.0316,2.3686e-05,2.636e-05,0.0,0 STARLINK-5804,1 55788U 23028AZ  23135.51495466  .00002636  00000-0  23686-4 0  9998,2 55788  69.9986 310.6270 0003338 261.0502  99.0316 15.69920471 12098,6737.262,91.724,361.375,356.878,0.0
